{
  "type": "FeatureCollection",
  "features": [
    {
      "type": "Feature",
      "properties": {
        "norad_id": 67069,
        "name": "XIWANG-5 02",
        "group": "last-30-days",
        "lat": 24.027583352592615,
        "lon": -144.49794789600838,
        "alt_km": 508.57671592701536,
        "timestamp": "2025-12-18T23:35:47.784702+00:00",
        "meta_object_name": "XIWANG-5 02",
        "meta_object_id": "2025-296A",
        "meta_epoch": "2025-12-18T15:04:26.717664",
        "meta_mean_motion": 15.16786899,
        "meta_eccentricity": 0.00145165,
        "meta_inclination": 41.3526,
        "meta_ra_of_asc_node": 67.983,
        "meta_arg_of_pericenter": 66.6881,
        "meta_mean_anomaly": 293.5466,
        "meta_ephemeris_type": 0,
        "meta_classification_type": "U",
        "meta_norad_cat_id": 67069,
        "meta_element_set_no": 999,
        "meta_rev_at_epoch": 85,
        "meta_bstar": 0.00051089156,
        "meta_mean_motion_dot": 0.00010064,
        "meta_mean_motion_ddot": 0,
        "tle_line1": "1 67069U 25296A   25352.62808701  .00010064  00000+0  51089-3 0  9997",
        "tle_line2": "2 67069  41.3526  67.9830 0014516  66.6881 293.5466 15.16786899   854"
      },
      "geometry": {
        "type": "Point",
        "coordinates": [
          -144.49794789600838,
          24.027583352592615
        ]
      }
    },
    {
      "type": "Feature",
      "properties": {
        "norad_id": 67070,
        "name": "DEAR-5",
        "group": "last-30-days",
        "lat": 21.699699738736722,
        "lon": -140.94832620503985,
        "alt_km": 508.8862975002712,
        "timestamp": "2025-12-18T23:35:47.784713+00:00",
        "meta_object_name": "DEAR-5",
        "meta_object_id": "2025-296B",
        "meta_epoch": "2025-12-18T15:03:25.686432",
        "meta_mean_motion": 15.16878703,
        "meta_eccentricity": 0.00161414,
        "meta_inclination": 41.3553,
        "meta_ra_of_asc_node": 67.9796,
        "meta_arg_of_pericenter": 67.8036,
        "meta_mean_anomaly": 292.4497,
        "meta_ephemeris_type": 0,
        "meta_classification_type": "U",
        "meta_norad_cat_id": 67070,
        "meta_element_set_no": 999,
        "meta_rev_at_epoch": 84,
        "meta_bstar": 0.00027257477,
        "meta_mean_motion_dot": 5.286e-05,
        "meta_mean_motion_ddot": 0,
        "tle_line1": "1 67070U 25296B   25352.62738063  .00005286  00000+0  27257-3 0  9992",
        "tle_line2": "2 67070  41.3553  67.9796 0016141  67.8036 292.4497 15.16878703   845"
      },
      "geometry": {
        "type": "Point",
        "coordinates": [
          -140.94832620503985,
          21.699699738736722
        ]
      }
    },
    {
      "type": "Feature",
      "properties": {
        "norad_id": 67071,
        "name": "KZ-11 R/B",
        "group": "last-30-days",
        "lat": 41.05055618737706,
        "lon": 150.54224740453972,
        "alt_km": 532.1261681168198,
        "timestamp": "2025-12-18T23:35:47.784723+00:00",
        "meta_object_name": "KZ-11 R/B",
        "meta_object_id": "2025-296C",
        "meta_epoch": "2025-12-18T15:12:04.775040",
        "meta_mean_motion": 14.86880523,
        "meta_eccentricity": 0.0678861,
        "meta_inclination": 41.3315,
        "meta_ra_of_asc_node": 70.2352,
        "meta_arg_of_pericenter": 355.0978,
        "meta_mean_anomaly": 4.3418,
        "meta_ephemeris_type": 0,
        "meta_classification_type": "U",
        "meta_norad_cat_id": 67071,
        "meta_element_set_no": 999,
        "meta_rev_at_epoch": 82,
        "meta_bstar": 0.00050273,
        "meta_mean_motion_dot": 0.05443035,
        "meta_mean_motion_ddot": 6.0161e-06,
        "tle_line1": "1 67071U 25296C   25352.63338860  .05443035  60161-5  50273-3 0  9992",
        "tle_line2": "2 67071  41.3315  70.2352 0678861 355.0978   4.3418 14.86880523   827"
      },
      "geometry": {
        "type": "Point",
        "coordinates": [
          150.54224740453972,
          41.05055618737706
        ]
      }
    },
    {
      "type": "Feature",
      "properties": {
        "norad_id": 67072,
        "name": "ELECTRON R/B",
        "group": "last-30-days",
        "lat": 14.387681435570025,
        "lon": 138.95484473146357,
        "alt_km": 441.46191078327956,
        "timestamp": "2025-12-18T23:35:47.784733+00:00",
        "meta_object_name": "ELECTRON R/B",
        "meta_object_id": "2025-297A",
        "meta_epoch": "2025-12-18T15:57:54.202752",
        "meta_mean_motion": 15.85984963,
        "meta_eccentricity": 0.0208203,
        "meta_inclination": 97.4744,
        "meta_ra_of_asc_node": 140.5365,
        "meta_arg_of_pericenter": 211.0678,
        "meta_mean_anomaly": 147.8147,
        "meta_ephemeris_type": 0,
        "meta_classification_type": "U",
        "meta_norad_cat_id": 67072,
        "meta_element_set_no": 999,
        "meta_rev_at_epoch": 72,
        "meta_bstar": 0.0013641,
        "meta_mean_motion_dot": 0.02275538,
        "meta_mean_motion_ddot": 2.2218e-06,
        "tle_line1": "1 67072U 25297A   25352.66521068  .02275538  22218-5  13641-2 0  9997",
        "tle_line2": "2 67072  97.4744 140.5365 0208203 211.0678 147.8147 15.85984963   722"
      },
      "geometry": {
        "type": "Point",
        "coordinates": [
          138.95484473146357,
          14.387681435570025
        ]
      }
    },
    {
      "type": "Feature",
      "properties": {
        "norad_id": 67073,
        "name": "RAISE-4",
        "group": "last-30-days",
        "lat": -53.86046898976829,
        "lon": -50.00827632002889,
        "alt_km": 548.3610279712702,
        "timestamp": "2025-12-18T23:35:47.784743+00:00",
        "meta_object_name": "RAISE-4",
        "meta_object_id": "2025-297B",
        "meta_epoch": "2025-12-18T14:35:29.135040",
        "meta_mean_motion": 15.0717313,
        "meta_eccentricity": 0.0011454,
        "meta_inclination": 97.4853,
        "meta_ra_of_asc_node": 139.9992,
        "meta_arg_of_pericenter": 299.481,
        "meta_mean_anomaly": 60.5274,
        "meta_ephemeris_type": 0,
        "meta_classification_type": "U",
        "meta_norad_cat_id": 67073,
        "meta_element_set_no": 999,
        "meta_rev_at_epoch": 67,
        "meta_bstar": 0.00024330176,
        "meta_mean_motion_dot": 3.604e-05,
        "meta_mean_motion_ddot": 0,
        "tle_line1": "1 67073U 25297B   25352.60797610  .00003604  00000+0  24330-3 0  9998",
        "tle_line2": "2 67073  97.4853 139.9992 0011454 299.4810  60.5274 15.07173130   676"
      },
      "geometry": {
        "type": "Point",
        "coordinates": [
          -50.00827632002889,
          -53.86046898976829
        ]
      }
    },
    {
      "type": "Feature",
      "properties": {
        "norad_id": 67074,
        "name": "ELECTRON KICK STAGE R/B",
        "group": "last-30-days",
        "lat": -19.91511590346022,
        "lon": 143.45869646816936,
        "alt_km": 409.63800453855583,
        "timestamp": "2025-12-18T23:35:47.784757+00:00",
        "meta_object_name": "ELECTRON KICK STAGE R/B",
        "meta_object_id": "2025-297C",
        "meta_epoch": "2025-12-18T11:20:04.813152",
        "meta_mean_motion": 15.5571599,
        "meta_eccentricity": 0.02030521,
        "meta_inclination": 97.4821,
        "meta_ra_of_asc_node": 140.1941,
        "meta_arg_of_pericenter": 248.6622,
        "meta_mean_anomaly": 109.2853,
        "meta_ephemeris_type": 0,
        "meta_classification_type": "U",
        "meta_norad_cat_id": 67074,
        "meta_element_set_no": 999,
        "meta_rev_at_epoch": 67,
        "meta_bstar": 0.0013808302,
        "meta_mean_motion_dot": 0.00248398,
        "meta_mean_motion_ddot": 1.8168549e-05,
        "tle_line1": "1 67074U 25297C   25352.47227793  .00248398  18169-4  13808-2 0  9992",
        "tle_line2": "2 67074  97.4821 140.1941 0203052 248.6622 109.2853 15.55715990   677"
      },
      "geometry": {
        "type": "Point",
        "coordinates": [
          143.45869646816936,
          -19.91511590346022
        ]
      }
    },
    {
      "type": "Feature",
      "properties": {
        "norad_id": 67131,
        "name": "ZIYUAN 3-04 (ZY 3-04)",
        "group": "last-30-days",
        "lat": -71.22433583353074,
        "lon": -135.7310717136702,
        "alt_km": 491.61274811342355,
        "timestamp": "2025-12-18T23:35:47.784767+00:00",
        "meta_object_name": "ZIYUAN 3-04 (ZY 3-04)",
        "meta_object_id": "2025-300A",
        "meta_epoch": "2025-12-16T05:54:33.890112",
        "meta_mean_motion": 15.24627585,
        "meta_eccentricity": 0.0011082,
        "meta_inclination": 97.5012,
        "meta_ra_of_asc_node": 64.3338,
        "meta_arg_of_pericenter": 268.6179,
        "meta_mean_anomaly": 91.3789,
        "meta_ephemeris_type": 0,
        "meta_classification_type": "U",
        "meta_norad_cat_id": 67131,
        "meta_element_set_no": 999,
        "meta_rev_at_epoch": 2,
        "meta_bstar": 8.3268042e-05,
        "meta_mean_motion_dot": 1.984e-05,
        "meta_mean_motion_ddot": 0,
        "tle_line1": "1 67131U 25300A   25350.24622558  .00001984  00000+0  83268-4 0  9999",
        "tle_line2": "2 67131  97.5012  64.3338 0011082 268.6179  91.3789 15.24627585    26"
      },
      "geometry": {
        "type": "Point",
        "coordinates": [
          -135.7310717136702,
          -71.22433583353074
        ]
      }
    }
  ]
}